{
  "norad_id": 66121,
  "name": "STARLINK-35631",
  "history": [
    {
      "epoch": "2026-03-28T20:46:49.808064Z",
      "apogee_km": 475.6232537848018,
      "perigee_km": 474.74328746205447,
      "latitude_deg": -3.9891366571613106e-05,
      "longitude_deg": 172.7655758652493,
      "height_km": 476.2916882444412,
      "semi_major_axis_km": 6853.320270623428,
      "eccentricity": 6.42e-05,
      "inclination_deg": 53.1607,
      "raan_deg": 310.7533,
      "arg_perigee_deg": 118.4092,
      "mean_anomaly_deg": 241.6973,
      "mean_motion_rev_day": 15.3021065
    },
    {
      "epoch": "2026-03-29T23:25:44.583744Z",
      "apogee_km": 476.0556412993046,
      "perigee_km": 474.36560577533965,
      "latitude_deg": -5.6078802279232686e-05,
      "longitude_deg": 126.79091523515034,
      "height_km": 475.9581288317156,
      "semi_major_axis_km": 6853.347623537322,
      "eccentricity": 0.0001233,
      "inclination_deg": 53.1587,
      "raan_deg": 305.6013,
      "arg_perigee_deg": 79.7394,
      "mean_anomaly_deg": 280.3745,
      "mean_motion_rev_day": 15.30201489
    },
    {
      "epoch": "2026-03-30T05:41:57.195456Z",
      "apogee_km": 476.1154225149203,
      "perigee_km": 474.25296394744873,
      "latitude_deg": 5.5845072402849746e-06,
      "longitude_deg": 31.264005937145626,
      "height_km": 476.305190944939,
      "semi_major_axis_km": 6853.321193231184,
      "eccentricity": 0.00013588,
      "inclination_deg": 53.1583,
      "raan_deg": 304.3844,
      "arg_perigee_deg": 103.8662,
      "mean_anomaly_deg": 256.249,
      "mean_motion_rev_day": 15.30210341
    }
  ]
}